ONEWEB-0628             
1 55169U 23004AF  26110.08359662  .00000325  00000+0  86710-3 0  9998
2 55169  87.9004   2.1966 0001580 104.2371 255.8933 13.12441592160411
ONEWEB-0629             
1 55170U 23004AG  26110.17418464  .00000144  00000+0  33838-3 0  9998
2 55170  87.9182  17.3966 0001950  88.8038 271.3317 13.17646609159942
ONEWEB-0631             
1 55171U 23004AH  26110.13149061  .00000000  00000+0 -32554-4 0  9996
2 55171  87.9216 346.9808 0001426  71.2007 288.9280 13.18685544162025
ONEWEB-0709             
1 55172U 23004AJ  26110.21879815  .00000395  00000+0  10798-2 0  9993
2 55172  87.8920  32.6046 0002098  53.2352 306.8969 13.11422002158276
ONEWEB-0710             
1 55173U 23004AK  26110.18854701  .00000114  00000+0  26129-3 0  9992
2 55173  87.9185  17.3891 0001652  81.8290 278.3029 13.17647688159942
ONEWEB-0711             
1 55174U 23004AL  26110.18996781 -.00000385  00000+0 -11210-2 0  9994
2 55174  87.8924  32.5962 0001278  96.8603 263.2670 13.11415678158231
ONEWEB-0713             
1 55175U 23004AM  26110.20862197 -.00000009  00000+0 -60126-4 0  9996
2 55175  87.8930  32.5926 0001541  85.9097 274.2208 13.11419151158226
ONEWEB-0715             
1 55176U 23004AN  26110.20353409 -.00000334  00000+0 -97810-3 0  9998
2 55176  87.8933  32.5927 0001652  54.1528 305.9753 13.11417970158269
ONEWEB-0716             
1 55177U 23004AP  26110.18179137  .00000143  00000+0  33638-3 0  9994
2 55177  87.9189  17.3917 0002064  79.4128 280.7236 13.17647625159948
ONEWEB-0717             
1 55178U 23004AQ  26110.16491715  .00000159  00000+0  37595-3 0  9995
2 55178  87.9192  17.3778 0001208  91.2552 268.8718 13.17647507159996
ONEWEB-0719             
1 55179U 23004AR  26110.17504215  .00000150  00000+0  35363-3 0  9999
2 55179  87.9192  17.3569 0001977  83.2461 276.8896 13.17647377159944
ONEWEB-0530             
1 55796U 23029A   26110.28801299  .00000057  00000+0  10828-3 0  9990
2 55796  87.9126 286.0311 0001705 110.3656 249.7661 13.20772790153500
ONEWEB-0534             
1 55797U 23029B   26110.19962689  .00000066  00000+0  13038-3 0  9998
2 55797  87.9135 286.0477 0001888  92.8312 267.3037 13.20773329153499
ONEWEB-0556             
1 55798U 23029C   26110.20596315  .00000092  00000+0  19453-3 0  9996
2 55798  87.9128 286.0478 0002550 105.1786 254.9630 13.20771202153492
ONEWEB-0562             
1 55799U 23029D   26110.19331317  .00000043  00000+0  74787-4 0  9992
2 55799  87.9130 286.0310 0002055 119.1437 240.9902 13.20773490153497
ONEWEB-0563             
1 55800U 23029E   26110.18701849  .00000041  00000+0  68246-4 0  9996
2 55800  87.9128 286.0623 0002007  92.5979 267.5384 13.20772382153483
