[{"OBJECT_NAME":"ONEWEB-0628","OBJECT_ID":"2023-004AF","EPOCH":"2026-04-20T02:00:22.747968","MEAN_MOTION":13.12441592,"ECCENTRICITY":0.000158,"INCLINATION":87.9004,"RA_OF_ASC_NODE":2.1966,"ARG_OF_PERICENTER":104.2371,"MEAN_ANOMALY":255.8933,"EPHEMERIS_TYPE":0,"CLASSIFICATION_TYPE":"U","NORAD_CAT_ID":55169,"ELEMENT_SET_NO":999,"REV_AT_EPOCH":16041,"BSTAR":0.0008671,"MEAN_MOTION_DOT":3.25e-06,"MEAN_MOTION_DDOT":0.0},{"OBJECT_NAME":"ONEWEB-0629","OBJECT_ID":"2023-004AG","EPOCH":"2026-04-20T04:10:49.552896","MEAN_MOTION":13.17646609,"ECCENTRICITY":0.000195,"INCLINATION":87.9182,"RA_OF_ASC_NODE":17.3966,"ARG_OF_PERICENTER":88.8038,"MEAN_ANOMALY":271.3317,"EPHEMERIS_TYPE":0,"CLASSIFICATION_TYPE":"U","NORAD_CAT_ID":55170,"ELEMENT_SET_NO":999,"REV_AT_EPOCH":15994,"BSTAR":0.00033838,"MEAN_MOTION_DOT":1.44e-06,"MEAN_MOTION_DDOT":0.0},{"OBJECT_NAME":"ONEWEB-0631","OBJECT_ID":"2023-004AH","EPOCH":"2026-04-20T03:09:20.788704","MEAN_MOTION":13.18685544,"ECCENTRICITY":0.0001426,"INCLINATION":87.9216,"RA_OF_ASC_NODE":346.9808,"ARG_OF_PERICENTER":71.2007,"MEAN_ANOMALY":288.928,"EPHEMERIS_TYPE":0,"CLASSIFICATION_TYPE":"U","NORAD_CAT_ID":55171,"ELEMENT_SET_NO":999,"REV_AT_EPOCH":16202,"BSTAR":-3.2554e-05,"MEAN_MOTION_DOT":0.0,"MEAN_MOTION_DDOT":0.0},{"OBJECT_NAME":"ONEWEB-0709","OBJECT_ID":"2023-004AJ","EPOCH":"2026-04-20T05:15:04.160160","MEAN_MOTION":13.11422002,"ECCENTRICITY":0.0002098,"INCLINATION":87.892,"RA_OF_ASC_NODE":32.6046,"ARG_OF_PERICENTER":53.2352,"MEAN_ANOMALY":306.8969,"EPHEMERIS_TYPE":0,"CLASSIFICATION_TYPE":"U","NORAD_CAT_ID":55172,"ELEMENT_SET_NO":999,"REV_AT_EPOCH":15827,"BSTAR":0.0010798000000000001,"MEAN_MOTION_DOT":3.95e-06,"MEAN_MOTION_DDOT":0.0},{"OBJECT_NAME":"ONEWEB-0710","OBJECT_ID":"2023-004AK","EPOCH":"2026-04-20T04:31:30.461664","MEAN_MOTION":13.17647688,"ECCENTRICITY":0.0001652,"INCLINATION":87.9185,"RA_OF_ASC_NODE":17.3891,"ARG_OF_PERICENTER":81.829,"MEAN_ANOMALY":278.3029,"EPHEMERIS_TYPE":0,"CLASSIFICATION_TYPE":"U","NORAD_CAT_ID":55173,"ELEMENT_SET_NO":999,"REV_AT_EPOCH":15994,"BSTAR":0.00026129,"MEAN_MOTION_DOT":1.14e-06,"MEAN_MOTION_DDOT":0.0},{"OBJECT_NAME":"ONEWEB-0711","OBJECT_ID":"2023-004AL","EPOCH":"2026-04-20T04:33:33.218784","MEAN_MOTION":13.11415678,"ECCENTRICITY":0.0001278,"INCLINATION":87.8924,"RA_OF_ASC_NODE":32.5962,"ARG_OF_PERICENTER":96.8603,"MEAN_ANOMALY":263.267,"EPHEMERIS_TYPE":0,"CLASSIFICATION_TYPE":"U","NORAD_CAT_ID":55174,"ELEMENT_SET_NO":999,"REV_AT_EPOCH":15823,"BSTAR":-0.001121,"MEAN_MOTION_DOT":-3.85e-06,"MEAN_MOTION_DDOT":0.0},{"OBJECT_NAME":"ONEWEB-0713","OBJECT_ID":"2023-004AM","EPOCH":"2026-04-20T05:00:24.938208","MEAN_MOTION":13.11419151,"ECCENTRICITY":0.0001541,"INCLINATION":87.893,"RA_OF_ASC_NODE":32.5926,"ARG_OF_PERICENTER":85.9097,"MEAN_ANOMALY":274.2208,"EPHEMERIS_TYPE":0,"CLASSIFICATION_TYPE":"U","NORAD_CAT_ID":55175,"ELEMENT_SET_NO":999,"REV_AT_EPOCH":15822,"BSTAR":-6.012600000000001e-05,"MEAN_MOTION_DOT":-9e-08,"MEAN_MOTION_DDOT":0.0},{"OBJECT_NAME":"ONEWEB-0715","OBJECT_ID":"2023-004AN","EPOCH":"2026-04-20T04:53:05.345376","MEAN_MOTION":13.1141797,"ECCENTRICITY":0.0001652,"INCLINATION":87.8933,"RA_OF_ASC_NODE":32.5927,"ARG_OF_PERICENTER":54.1528,"MEAN_ANOMALY":305.9753,"EPHEMERIS_TYPE":0,"CLASSIFICATION_TYPE":"U","NORAD_CAT_ID":55176,"ELEMENT_SET_NO":999,"REV_AT_EPOCH":15826,"BSTAR":-0.0009781,"MEAN_MOTION_DOT":-3.34e-06,"MEAN_MOTION_DDOT":0.0},{"OBJECT_NAME":"ONEWEB-0716","OBJECT_ID":"2023-004AP","EPOCH":"2026-04-20T04:21:46.774368","MEAN_MOTION":13.17647625,"ECCENTRICITY":0.0002064,"INCLINATION":87.9189,"RA_OF_ASC_NODE":17.3917,"ARG_OF_PERICENTER":79.4128,"MEAN_ANOMALY":280.7236,"EPHEMERIS_TYPE":0,"CLASSIFICATION_TYPE":"U","NORAD_CAT_ID":55177,"ELEMENT_SET_NO":999,"REV_AT_EPOCH":15994,"BSTAR":0.00033638,"MEAN_MOTION_DOT":1.43e-06,"MEAN_MOTION_DDOT":0.0},{"OBJECT_NAME":"ONEWEB-0717","OBJECT_ID":"2023-004AQ","EPOCH":"2026-04-20T03:57:28.841760","MEAN_MOTION":13.17647507,"ECCENTRICITY":0.0001208,"INCLINATION":87.9192,"RA_OF_ASC_NODE":17.3778,"ARG_OF_PERICENTER":91.2552,"MEAN_ANOMALY":268.8718,"EPHEMERIS_TYPE":0,"CLASSIFICATION_TYPE":"U","NORAD_CAT_ID":55178,"ELEMENT_SET_NO":999,"REV_AT_EPOCH":15999,"BSTAR":0.00037595,"MEAN_MOTION_DOT":1.59e-06,"MEAN_MOTION_DDOT":0.0},{"OBJECT_NAME":"ONEWEB-0719","OBJECT_ID":"2023-004AR","EPOCH":"2026-04-20T04:12:03.641760","MEAN_MOTION":13.17647377,"ECCENTRICITY":0.0001977,"INCLINATION":87.9192,"RA_OF_ASC_NODE":17.3569,"ARG_OF_PERICENTER":83.2461,"MEAN_ANOMALY":276.8896,"EPHEMERIS_TYPE":0,"CLASSIFICATION_TYPE":"U","NORAD_CAT_ID":55179,"ELEMENT_SET_NO":999,"REV_AT_EPOCH":15994,"BSTAR":0.00035363,"MEAN_MOTION_DOT":1.5e-06,"MEAN_MOTION_DDOT":0.0},{"OBJECT_NAME":"ONEWEB-0530","OBJECT_ID":"2023-029A","EPOCH":"2026-04-20T06:54:44.322336","MEAN_MOTION":13.2077279,"ECCENTRICITY":0.0001705,"INCLINATION":87.9126,"RA_OF_ASC_NODE":286.0311,"ARG_OF_PERICENTER":110.3656,"MEAN_ANOMALY":249.7661,"EPHEMERIS_TYPE":0,"CLASSIFICATION_TYPE":"U","NORAD_CAT_ID":55796,"ELEMENT_SET_NO":999,"REV_AT_EPOCH":15350,"BSTAR":0.00010828,"MEAN_MOTION_DOT":5.7e-07,"MEAN_MOTION_DDOT":0.0},{"OBJECT_NAME":"ONEWEB-0534","OBJECT_ID":"2023-029B","EPOCH":"2026-04-20T04:47:27.763296","MEAN_MOTION":13.20773329,"ECCENTRICITY":0.0001888,"INCLINATION":87.9135,"RA_OF_ASC_NODE":286.0477,"ARG_OF_PERICENTER":92.8312,"MEAN_ANOMALY":267.3037,"EPHEMERIS_TYPE":0,"CLASSIFICATION_TYPE":"U","NORAD_CAT_ID":55797,"ELEMENT_SET_NO":999,"REV_AT_EPOCH":15349,"BSTAR":0.00013038,"MEAN_MOTION_DOT":6.6e-07,"MEAN_MOTION_DDOT":0.0},{"OBJECT_NAME":"ONEWEB-0556","OBJECT_ID":"2023-029C","EPOCH":"2026-04-20T04:56:35.216160","MEAN_MOTION":13.20771202,"ECCENTRICITY":0.000255,"INCLINATION":87.9128,"RA_OF_ASC_NODE":286.0478,"ARG_OF_PERICENTER":105.1786,"MEAN_ANOMALY":254.963,"EPHEMERIS_TYPE":0,"CLASSIFICATION_TYPE":"U","NORAD_CAT_ID":55798,"ELEMENT_SET_NO":999,"REV_AT_EPOCH":15349,"BSTAR":0.00019453000000000002,"MEAN_MOTION_DOT":9.2e-07,"MEAN_MOTION_DDOT":0.0},{"OBJECT_NAME":"ONEWEB-0562","OBJECT_ID":"2023-029D","EPOCH":"2026-04-20T04:38:22.257888","MEAN_MOTION":13.2077349,"ECCENTRICITY":0.0002055,"INCLINATION":87.913,"RA_OF_ASC_NODE":286.031,"ARG_OF_PERICENTER":119.1437,"MEAN_ANOMALY":240.9902,"EPHEMERIS_TYPE":0,"CLASSIFICATION_TYPE":"U","NORAD_CAT_ID":55799,"ELEMENT_SET_NO":999,"REV_AT_EPOCH":15349,"BSTAR":7.4787e-05,"MEAN_MOTION_DOT":4.3e-07,"MEAN_MOTION_DDOT":0.0},{"OBJECT_NAME":"ONEWEB-0563","OBJECT_ID":"2023-029E","EPOCH":"2026-04-20T04:29:18.397536","MEAN_MOTION":13.20772382,"ECCENTRICITY":0.0002007,"INCLINATION":87.9128,"RA_OF_ASC_NODE":286.0623,"ARG_OF_PERICENTER":92.5979,"MEAN_ANOMALY":267.5384,"EPHEMERIS_TYPE":0,"CLASSIFICATION_TYPE":"U","NORAD_CAT_ID":55800,"ELEMENT_SET_NO":999,"REV_AT_EPOCH":15348,"BSTAR":6.8246e-05,"MEAN_MOTION_DOT":4.1e-07,"MEAN_MOTION_DDOT":0.0}]